STARLINK-31509          
1 59533U 24073Y   26067.13664332  .00004389  00000+0  16880-3 0  9999
2 59533  43.0035 327.1834 0000888 323.7820  36.2971 15.27600841105939
TROLL                   
1 62658U 25009BB  26068.22522958  .00013174  00000+0  48220-3 0  9994
2 62658  97.3932 150.7169 0001816  59.1850 300.9568 15.28164315118170
